NORAD_CAT_ID,OBJECT_NAME,OBJECT_TYPE,EPOCH,MEAN_MOTION,ECCENTRICITY,INCLINATION,RA_OF_ASC_NODE,ARG_OF_PERICENTER,MEAN_ANOMALY,BSTAR,MEAN_MOTION_DOT,MEAN_MOTION_DDOT,TLE_LINE0,TLE_LINE1,TLE_LINE2,SEMIMAJOR_AXIS,PERIOD,APOGEE,PERIGEE,DECAYED
53132.0,STARLINK-4063,PAYLOAD,2022-12-26 11:07:52,15.08835846,0.0002914,53.2177,22.9949,28.1362,331.9787,2.0178e-05,3.3e-07,0.0,0 STARLINK-4063,1 53132U 22083A   22360.46380092  .00000033  00000-0  20178-4 0  9992,2 53132  53.2177  22.9949 0002914  28.1362 331.9787 15.08835846 24703,6917.893,95.438,541.774,537.742,0.0
53132.0,STARLINK-4063,PAYLOAD,2022-12-26 19:04:47,15.0884791,0.0002824,53.2173,21.5079,29.6233,330.4919,3.9945e-05,3.47e-06,0.0,0 STARLINK-4063,1 53132U 22083A   22360.79499269  .00000347  00000-0  39945-4 0  9995,2 53132  53.2173  21.5079 0002824  29.6233 330.4919 15.08847910 24752,6917.856,95.437,541.675,537.768,0.0
53132.0,STARLINK-4063,PAYLOAD,2022-12-27 09:23:15,15.08857935,0.00029,53.2164,18.8313,29.13300000000001,330.9823,0.00043155,6.59e-05,0.0,0 STARLINK-4063,1 53132U 22083A   22361.39114587  .00006590  00000-0  43155-3 0  9992,2 53132  53.2164  18.8313 0002900  29.1330 330.9823 15.08857935 25477,6917.826,95.436,541.697,537.684,0.0
53132.0,STARLINK-4063,PAYLOAD,2022-12-27 12:34:01,15.0886165,0.0003013,53.2164,18.2372,27.6588,332.4564,0.000447,6.837e-05,0.0,0 STARLINK-4063,1 53132U 22083A   22361.52362476  .00006837  00000-0  44700-3 0  9990,2 53132  53.2164  18.2372 0003013  27.6588 332.4564 15.08861650 24860,6917.814,95.436,541.764,537.595,0.0
53132.0,STARLINK-4063,PAYLOAD,2022-12-28 01:17:06,15.088568099999998,0.0003051,53.2159,15.8572,29.3138,330.8024,0.00035522,5.372e-05,0.0,0 STARLINK-4063,1 53132U 22083A   22362.05354416  .00005372  00000-0  35522-3 0  9999,2 53132  53.2159  15.8572 0003051  29.3138 330.8024 15.08856810 25575,6917.829000000002,95.436,541.805,537.5830000000002,0.0
53132.0,STARLINK-4063,PAYLOAD,2022-12-29 01:07:53,15.08832209,0.0002906,53.216,11.3971,29.1808,330.9346,-0.00015051,-2.683e-05,0.0,0 STARLINK-4063,1 53132U 22083A   22363.04715222 -.00002683  00000-0 -15051-3 0  9994,2 53132  53.2160  11.3971 0002906  29.1808 330.9346 15.08832209 25722,6917.904,95.438,541.78,537.759,0.0
53132.0,STARLINK-4063,PAYLOAD,2022-12-29 10:40:13,15.08832591,0.0002839999999999,53.2166,9.6127,30.3466,329.769,-0.00018873,-3.291e-05,0.0,0 STARLINK-4063,1 53132U 22083A   22363.44460188 -.00003291  00000-0 -18873-3 0  9997,2 53132  53.2166   9.6127 0002840  30.3466 329.7690 15.08832591 25151,6917.903,95.438,541.7330000000002,537.803,0.0
53132.0,STARLINK-4063,PAYLOAD,2022-12-30 10:30:59,15.08848669,0.0002892,53.217,5.1523,27.4495,332.6649,0.00010002,1.304e-05,0.0,0 STARLINK-4063,1 53132U 22083A   22364.43818639  .00001304  00000-0  10002-3 0  9992,2 53132  53.2170   5.1523 0002892  27.4495 332.6649 15.08848669 25939,6917.854,95.437,541.72,537.7180000000002,0.0
53132.0,STARLINK-4063,PAYLOAD,2022-12-31 07:10:59,15.08855004,0.0002942,53.2171,1.2866,28.0279,332.0871,0.00043346,6.620000000000001e-05,0.0,0 STARLINK-4063,1 53132U 22083A   22365.29930437  .00006620  00000-0  43346-3 0  9991,2 53132  53.2171   1.2866 0002942  28.0279 332.0871 15.08855004 25437,6917.835,95.437,541.735,537.664,0.0
53132.0,STARLINK-4063,PAYLOAD,2022-12-31 16:43:18,15.08852637,0.0002941,53.2168,359.5027,27.7425,332.3723,0.00016518,2.342e-05,0.0,0 STARLINK-4063,1 53132U 22083A   22365.69674201  .00002342  00000-0  16518-3 0  9997,2 53132  53.2168 359.5027 0002941  27.7425 332.3723 15.08852637 25493,6917.842,95.437,541.741,537.672,0.0
53132.0,STARLINK-4063,PAYLOAD,2023-01-01 02:15:37,15.08842084,0.0002823,53.2169,357.7188,30.7932,329.3225,-0.00016689,-2.944e-05,0.0,0 STARLINK-4063,1 53132U 22083A   23001.09418238 -.00002944  00000-0 -16689-3 0  9994,2 53132  53.2169 357.7188 0002823  30.7932 329.3225 15.08842084 26183,6917.874,95.437,541.692,537.786,0.0
53132.0,STARLINK-4063,PAYLOAD,2023-01-01 08:37:10,15.08828196,0.0002723999999999,53.2171,356.529,28.2213,331.8927,-0.00028096,-4.756e-05,0.0,0 STARLINK-4063,1 53132U 22083A   23001.35915198 -.00004756  00000-0 -28096-3 0  9998,2 53132  53.2171 356.5290 0002724  28.2213 331.8927 15.08828196 26221,6917.916,95.438,541.6659999999998,537.8969999999998,0.0
53132.0,STARLINK-4063,PAYLOAD,2023-01-01 16:34:06,15.08833249,0.0002862,53.2167,355.0412,25.4715,334.6418,-0.0002032999999999,-3.522e-05,0.0,0 STARLINK-4063,1 53132U 22083A   23001.69035083 -.00003522  00000-0 -20330-3 0  9994,2 53132  53.2167 355.0412 0002862  25.4715 334.6418 15.08833249 25641,6917.901,95.438,541.746,537.786,0.0
53132.0,STARLINK-4063,PAYLOAD,2023-01-02 10:03:21,15.08831088,0.000292,53.2167,351.7709,27.7514,332.3633,-6.212e-05,-1.277e-05,0.0,0 STARLINK-4063,1 53132U 22083A   23002.41899928 -.00001277  00000-0 -62120-4 0  9990,2 53132  53.2167 351.7709 0002920  27.7514 332.3633 15.08831088 26385,6917.908,95.438,541.793,537.753,0.0
53132.0,STARLINK-4063,PAYLOAD,2023-01-02 11:38:44,15.08829936,0.0002928,53.2166,351.4734,27.5108,332.6039,-1.4007e-05,-5.11e-06,0.0,0 STARLINK-4063,1 53132U 22083A   23002.48524084 -.00000511  00000-0 -14007-4 0  9996,2 53132  53.2166 351.4734 0002928  27.5108 332.6039 15.08829936 25767,6917.911,95.438,541.802,537.751,0.0
53132.0,STARLINK-4063,PAYLOAD,2023-01-02 16:24:54,15.08835144,0.0002908999999999,53.2166,350.5812,27.6148,332.4998,0.00010984,1.46e-05,0.0,0 STARLINK-4063,1 53132U 22083A   23002.68396021  .00001460  00000-0  10984-3 0  9997,2 53132  53.2166 350.5812 0002909  27.6148 332.4998 15.08835144 25791,6917.895,95.438,541.773,537.748,0.0
53132.0,STARLINK-4063,PAYLOAD,2023-01-03 09:54:09,15.08840185,0.0002866,53.216,347.3102,26.9857,333.1283,0.00051653,7.942e-05,0.0,0 STARLINK-4063,1 53132U 22083A   23003.41260623  .00007942  00000-0  51653-3 0  9996,2 53132  53.2160 347.3102 0002866  26.9857 333.1283 15.08840185 26531,6917.88,95.438,541.727,537.762,0.0
53132.0,STARLINK-4063,PAYLOAD,2023-01-04 01:48:00,15.08839526,0.0002952,53.2161,344.3366,26.95,333.1645,0.0001643,2.327e-05,0.0,0 STARLINK-4063,1 53132U 22083A   23004.07500677  .00002327  00000-0  16430-3 0  9991,2 53132  53.2161 344.3366 0002952  26.9500 333.1645 15.08839526 26632,6917.882,95.438,541.789,537.705,0.0
53132.0,STARLINK-4063,PAYLOAD,2023-01-04 09:44:55,15.08857114,0.0002948,53.2161,342.8497,27.8855,332.2295,0.00065295,0.00010124,0.0,0 STARLINK-4063,1 53132U 22083A   23004.40620249  .00010124  00000-0  65295-3 0  9993,2 53132  53.2161 342.8497 0002948  27.8855 332.2295 15.08857114 26687,6917.828,95.436,541.732,537.654,0.0
53132.0,STARLINK-4063,PAYLOAD,2023-01-04 16:06:28,15.08853029,0.0003012,53.2161,341.6599,29.59800000000001,330.5182,0.00054688,8.429e-05,0.0,0 STARLINK-4063,1 53132U 22083A   23004.67116254  .00008429  00000-0  54688-3 0  9997,2 53132  53.2161 341.6599 0003012  29.5980 330.5182 15.08853029 26720,6917.840999999999,95.437,541.789,537.622,0.0
53132.0,STARLINK-4063,PAYLOAD,2023-01-05 09:35:41,15.088713,0.0002877,53.2166,338.3892,23.2257,336.8864,0.00051416,7.911e-05,0.0,0 STARLINK-4063,1 53132U 22083A   23005.39978806  .00007911  00000-0  51416-3 0  9997,2 53132  53.2166 338.3892 0002877  23.2257 336.8864 15.08871300 26201,6917.785,95.436,541.64,537.659,0.0
53132.0,STARLINK-4063,PAYLOAD,2023-01-06 07:51:05,15.08849811,0.0002723999999999,53.2174,334.2277,20.179,339.9309,-2.4473e-05,-6.78e-06,0.0,0 STARLINK-4063,1 53132U 22083A   23006.32714650 -.00000678  00000-0 -24473-4 0  9995,2 53132  53.2174 334.2277 0002724  20.1790 339.9309 15.08849811 26975,6917.85,95.437,541.6,537.831,0.0
53132.0,STARLINK-4063,PAYLOAD,2023-01-06 22:09:34,15.08823014,0.0002826,53.2165,331.5495,28.0435,332.0708,-0.00018505,-3.231e-05,0.0,0 STARLINK-4063,1 53132U 22083A   23006.92331985 -.00003231  00000-0 -18505-3 0  9993,2 53132  53.2165 331.5495 0002826  28.0435 332.0708 15.08823014 26438,6917.932,95.439,541.752,537.842,0.0
53132.0,STARLINK-4063,PAYLOAD,2023-01-07 04:31:07,15.08829638,0.0002928,53.2153,330.3590000000001,29.3453,330.7703,0.00044905,6.864e-05,0.0,0 STARLINK-4063,1 53132U 22083A   23007.18828056  .00006864  00000-0  44905-3 0  9998,2 53132  53.2153 330.3590 0002928  29.3453 330.7703 15.08829638 27108,6917.911999999998,95.438,541.803,537.751,0.0
53132.0,STARLINK-4063,PAYLOAD,2023-01-07 14:03:26,15.08835274,0.0002926,53.2156,328.5747,23.6218,336.4908,0.0006522,0.00010106,0.0,0 STARLINK-4063,1 53132U 22083A   23007.58572604  .00010106  00000-0  65220-3 0  9994,2 53132  53.2156 328.5747 0002926  23.6218 336.4908 15.08835274 26537,6917.895,95.438,541.784,537.736,0.0
53132.0,STARLINK-4063,PAYLOAD,2023-01-08 04:21:55,15.08832969,0.0003063,53.2191,325.9019,41.7668,318.3558,0.00059459,9.186e-05,0.0,0 STARLINK-4063,1 53132U 22083A   23008.18189403  .00009186  00000-0  59459-3 0  9995,2 53132  53.2191 325.9019 0003063  41.7668 318.3558 15.08832969 27250,6917.901999999999,95.438,541.886,537.648,0.0
53132.0,STARLINK-4063,PAYLOAD,2023-01-08 07:32:42,15.08824556,0.000291,53.2175,325.3054,28.8087,331.3065,5.2006e-05,5.39e-06,0.0,0 STARLINK-4063,1 53132U 22083A   23008.31437578  .00000539  00000-0  52006-4 0  9994,2 53132  53.2175 325.3054 0002910  28.8087 331.3065 15.08824556 27279,6917.928000000001,95.439,541.806,537.779,0.0
53132.0,STARLINK-4063,PAYLOAD,2023-01-08 20:15:46,15.08842549,0.0002723,53.2175,322.9269,24.431,335.681,0.00042029,6.408e-05,0.0,0 STARLINK-4063,1 53132U 22083A   23008.84429162  .00006408  00000-0  42029-3 0  9996,2 53132  53.2175 322.9269 0002723  24.4310 335.6810 15.08842549 27359,6917.873000000001,95.437,541.621,537.854,0.0
53132.0,STARLINK-4063,PAYLOAD,2023-01-09 05:48:05,15.08854488,0.0002839,53.2179,321.1419,24.5569,335.5557,0.00051077,7.853e-05,0.0,0 STARLINK-4063,1 53132U 22083A   23009.24172681  .00007853  00000-0  51077-3 0  9990,2 53132  53.2179 321.1419 0002839  24.5569 335.5557 15.08854488 26784,6917.835999999998,95.437,541.665,537.737,0.0
